XRISM                   
1 57800U 23137A   24038.89684261  .00006956  00000+0  54663-3 0  9999
2 57800  31.0037 120.8583 0009801 358.5373   1.5232 14.99497328 23021
